ELYSIUM STAR 2 & LFF    
1 43760U 18099C   24209.63130640  .00054365  00000+0  18682-2 0  9996
2 43760  97.5134 277.5636 0006908 137.5128 222.6648 15.29894272309413
